{
  "type": "FeatureCollection",
  "features": [
    {
      "type": "Feature",
      "id": "way/1150811062",
      "properties": {
        "building": "university",
        "building:levels": "1",
        "height": "3",
        "name": "",
        "id": "way/1150811062"
      },
      "geometry": {
        "type": "Polygon",
        "coordinates": [
          [
            [
              -103.8044329,
              19.2130794
            ],
            [
              -103.8041309,
              19.2130295
            ],
            [
              -103.8041082,
              19.2131489
            ],
            [
              -103.8041359,
              19.2131534
            ],
            [
              -103.8043899,
              19.213191
            ],
            [
              -103.804411,
              19.2131936
            ],
            [
              -103.8044329,
              19.2130794
            ]
          ]
        ]
      }
    },
    {
      "type": "Feature",
      "id": "way/1154065674",
      "properties": {
        "amenity": "theatre",
        "building": "yes",
        "name": "",
        "id": "way/1154065674"
      },
      "geometry": {
        "type": "Polygon",
        "coordinates": [
          [
            [
              -103.8039822,
              19.2131817
            ],
            [
              -103.8039979,
              19.2130683
            ],
            [
              -103.8036875,
              19.21303
            ],
            [
              -103.8036718,
              19.2131434
            ],
            [
              -103.8039822,
              19.2131817
            ]
          ]
        ]
      }
    },
    {
      "type": "Feature",
      "id": "way/1154065675",
      "properties": {
        "building": "university",
        "building:levels": "1",
        "height": "3",
        "name": "",
        "id": "way/1154065675"
      },
      "geometry": {
        "type": "Polygon",
        "coordinates": [
          [
            [
              -103.8047654,
              19.2134545
            ],
            [
              -103.8047829,
              19.21333
            ],
            [
              -103.804485,
              19.2132927
            ],
            [
              -103.8044675,
              19.2134173
            ],
            [
              -103.8047654,
              19.2134545
            ]
          ]
        ]
      }
    },
    {
      "type": "Feature",
      "id": "way/1154065676",
      "properties": {
        "building": "university",
        "name": "",
        "id": "way/1154065676"
      },
      "geometry": {
        "type": "Polygon",
        "coordinates": [
          [
            [
              -103.8044107,
              19.2137385
            ],
            [
              -103.804429,
              19.2136123
            ],
            [
              -103.8040686,
              19.2135656
            ],
            [
              -103.8040503,
              19.2136919
            ],
            [
              -103.8044107,
              19.2137385
            ]
          ]
        ]
      }
    },
    {
      "type": "Feature",
      "id": "way/1154065677",
      "properties": {
        "building": "university",
        "building:levels": "1",
        "height": "3",
        "name": "",
        "id": "way/1154065677"
      },
      "geometry": {
        "type": "Polygon",
        "coordinates": [
          [
            [
              -103.8043436,
              19.2134784
            ],
            [
              -103.8043624,
              19.2133548
            ],
            [
              -103.8041083,
              19.2133203
            ],
            [
              -103.8039838,
              19.2133033
            ],
            [
              -103.8039536,
              19.2132992
            ],
            [
              -103.8039347,
              19.2134229
            ],
            [
              -103.8043436,
              19.2134784
            ]
          ]
        ]
      }
    },
    {
      "type": "Feature",
      "id": "way/1154065678",
      "properties": {
        "building": "university",
        "name": "",
        "id": "way/1154065678"
      },
      "geometry": {
        "type": "Polygon",
        "coordinates": [
          [
            [
              -103.8036986,
              19.2139598
            ],
            [
              -103.8037165,
              19.2138434
            ],
            [
              -103.8035816,
              19.213825
            ],
            [
              -103.8033992,
              19.2138001
            ],
            [
              -103.8033814,
              19.2139164
            ],
            [
              -103.8036986,
              19.2139598
            ]
          ]
        ]
      }
    },
    {
      "type": "Feature",
      "id": "way/1154065679",
      "properties": {
        "building": "university",
        "name": "",
        "id": "way/1154065679"
      },
      "geometry": {
        "type": "Polygon",
        "coordinates": [
          [
            [
              -103.8041301,
              19.2139112
            ],
            [
              -103.8041473,
              19.2137891
            ],
            [
              -103.8039025,
              19.2137584
            ],
            [
              -103.8038854,
              19.2138806
            ],
            [
              -103.8041301,
              19.2139112
            ]
          ]
        ]
      }
    },
    {
      "type": "Feature",
      "id": "way/1154065680",
      "properties": {
        "building": "university",
        "name": "",
        "id": "way/1154065680"
      },
      "geometry": {
        "type": "Polygon",
        "coordinates": [
          [
            [
              -103.803543,
              19.2136868
            ],
            [
              -103.8035584,
              19.2135708
            ],
            [
              -103.803332,
              19.2135442
            ],
            [
              -103.8033167,
              19.2136601
            ],
            [
              -103.803543,
              19.2136868
            ]
          ]
        ]
      }
    },
    {
      "type": "Feature",
      "id": "way/1154065681",
      "properties": {
        "building": "university",
        "name": "",
        "id": "way/1154065681"
      },
      "geometry": {
        "type": "Polygon",
        "coordinates": [
          [
            [
              -103.8038167,
              19.2137296
            ],
            [
              -103.8038308,
              19.2136163
            ],
            [
              -103.8036501,
              19.2135962
            ],
            [
              -103.8036359,
              19.2137095
            ],
            [
              -103.8038167,
              19.2137296
            ]
          ]
        ]
      }
    },
    {
      "type": "Feature",
      "id": "way/1154065682",
      "properties": {
        "building": "university",
        "building:levels": "2",
        "layer": "-2",
        "name": "",
        "id": "way/1154065682"
      },
      "geometry": {
        "type": "Polygon",
        "coordinates": [
          [
            [
              -103.8036615,
              19.2135438
            ],
            [
              -103.8036779,
              19.2134309
            ],
            [
              -103.8036357,
              19.2134254
            ],
            [
              -103.8036295,
              19.2134246
            ],
            [
              -103.8034805,
              19.2134054
            ],
            [
              -103.8034497,
              19.2134014
            ],
            [
              -103.8034334,
              19.2135143
            ],
            [
              -103.8036243,
              19.213539
            ],
            [
              -103.8036615,
              19.2135438
            ]
          ]
        ]
      }
    },
    {
      "type": "Feature",
      "id": "way/1154065683",
      "properties": {
        "access": "permissive",
        "building": "university",
        "layer": "-2",
        "name": "",
        "id": "way/1154065683"
      },
      "geometry": {
        "type": "Polygon",
        "coordinates": [
          [
            [
              -103.8039547,
              19.2142915
            ],
            [
              -103.8040982,
              19.214096
            ],
            [
              -103.8038213,
              19.2139146
            ],
            [
              -103.8036777,
              19.2141101
            ],
            [
              -103.8039441,
              19.2142845
            ],
            [
              -103.8039547,
              19.2142915
            ]
          ]
        ]
      }
    },
    {
      "type": "Feature",
      "id": "way/1154065684",
      "properties": {
        "building": "university",
        "name": "",
        "id": "way/1154065684"
      },
      "geometry": {
        "type": "Polygon",
        "coordinates": [
          [
            [
              -103.8046258,
              19.213762
            ],
            [
              -103.8046402,
              19.2136505
            ],
            [
              -103.804509,
              19.2136354
            ],
            [
              -103.8044862,
              19.2136328
            ],
            [
              -103.8044718,
              19.2137443
            ],
            [
              -103.8046258,
              19.213762
            ]
          ]
        ]
      }
    },
    {
      "type": "Feature",
      "id": "way/1154065685",
      "properties": {
        "building": "roof",
        "height": "5",
        "layer": "2",
        "id": "way/1154065685",
        "name": ""
      },
      "geometry": {
        "type": "Polygon",
        "coordinates": [
          [
            [
              -103.8043528,
              19.2133786
            ],
            [
              -103.8043845,
              19.2133384
            ],
            [
              -103.8044004,
              19.2132832
            ],
            [
              -103.8043996,
              19.2132221
            ],
            [
              -103.8043919,
              19.213177
            ],
            [
              -103.8041346,
              19.2131355
            ],
            [
              -103.8041085,
              19.2131755
            ],
            [
              -103.8040838,
              19.2132337
            ],
            [
              -103.8040815,
              19.2132853
            ],
            [
              -103.8040969,
              19.2133413
            ],
            [
              -103.8043528,
              19.2133786
            ]
          ]
        ]
      }
    },
    {
      "type": "Feature",
      "id": "way/1154065706",
      "properties": {
        "building": "university",
        "building:levels": "1",
        "layer": "-1",
        "name": "",
        "id": "way/1154065706"
      },
      "geometry": {
        "type": "Polygon",
        "coordinates": [
          [
            [
              -103.8045601,
              19.2125586
            ],
            [
              -103.804257,
              19.2125151
            ],
            [
              -103.8042381,
              19.2126329
            ],
            [
              -103.8045412,
              19.2126763
            ],
            [
              -103.8045601,
              19.2125586
            ]
          ]
        ]
      }
    },
    {
      "type": "Feature",
      "id": "way/1154112595",
      "properties": {
        "building": "university",
        "name": "",
        "id": "way/1154112595"
      },
      "geometry": {
        "type": "Polygon",
        "coordinates": [
          [
            [
              -103.8032266,
              19.2136287
            ],
            [
              -103.8032483,
              19.2134569
            ],
            [
              -103.803,
              19.213429
            ],
            [
              -103.8029783,
              19.2136007
            ],
            [
              -103.8032266,
              19.2136287
            ]
          ]
        ]
      }
    },
    {
      "type": "Feature",
      "id": "way/1154135204",
      "properties": {
        "building": "university",
        "id": "way/1154135204",
        "name": ""
      },
      "geometry": {
        "type": "Polygon",
        "coordinates": [
          [
            [
              -103.8044244,
              19.214442
            ],
            [
              -103.8047599,
              19.2138541
            ],
            [
              -103.8046675,
              19.2138058
            ],
            [
              -103.8045562,
              19.2139937
            ],
            [
              -103.8045704,
              19.2140007
            ],
            [
              -103.8045405,
              19.2140552
            ],
            [
              -103.8045267,
              19.2140484
            ],
            [
              -103.8044844,
              19.2141247
            ],
            [
              -103.8044654,
              19.2141583
            ],
            [
              -103.8044755,
              19.2141634
            ],
            [
              -103.8044565,
              19.2141989
            ],
            [
              -103.8044012,
              19.2141718
            ],
            [
              -103.8043292,
              19.2143026
            ],
            [
              -103.8043828,
              19.2143289
            ],
            [
              -103.8043432,
              19.2144018
            ],
            [
              -103.8044244,
              19.214442
            ]
          ]
        ]
      }
    },
    {
      "type": "Feature",
      "id": "way/1154135213",
      "properties": {
        "building": "ruins",
        "id": "way/1154135213",
        "name": ""
      },
      "geometry": {
        "type": "Polygon",
        "coordinates": [
          [
            [
              -103.8037369,
              19.2123446
            ],
            [
              -103.8038185,
              19.2122288
            ],
            [
              -103.8036477,
              19.2121215
            ],
            [
              -103.8035661,
              19.2122373
            ],
            [
              -103.8037369,
              19.2123446
            ]
          ]
        ]
      }
    },
    {
      "type": "Feature",
      "id": "way/1154135214",
      "properties": {
        "building": "university",
        "building:levels": "2",
        "name": "Dirección",
        "id": "way/1154135214",
        "spaces": [
          {
            "name": "Dirección FIME",
            "faculty": "FIME"
          }
        ]
      },
      "geometry": {
        "type": "Polygon",
        "coordinates": [
          [
            [
              -103.803085,
              19.2122913
            ],
            [
              -103.803119,
              19.2120807
            ],
            [
              -103.802925,
              19.2120535
            ],
            [
              -103.8029087,
              19.2121574
            ],
            [
              -103.8028957,
              19.2122404
            ],
            [
              -103.802892,
              19.2122641
            ],
            [
              -103.803085,
              19.2122913
            ]
          ]
        ]
      }
    },
    {
      "type": "Feature",
      "id": "way/1154135222",
      "properties": {
        "building": "university",
        "building:levels": "2",
        "name": "",
        "id": "way/1154135222"
      },
      "geometry": {
        "type": "Polygon",
        "coordinates": [
          [
            [
              -103.8039875,
              19.2113788
            ],
            [
              -103.8038943,
              19.2113692
            ],
            [
              -103.8038863,
              19.2114377
            ],
            [
              -103.8038523,
              19.2114364
            ],
            [
              -103.8038186,
              19.2114205
            ],
            [
              -103.8038487,
              19.2113545
            ],
            [
              -103.803762,
              19.2113194
            ],
            [
              -103.8037306,
              19.2113829
            ],
            [
              -103.8036788,
              19.2113771
            ],
            [
              -103.803685,
              19.2113082
            ],
            [
              -103.8035948,
              19.2112998
            ],
            [
              -103.8035899,
              19.211357
            ],
            [
              -103.8035404,
              19.2113533
            ],
            [
              -103.8035332,
              19.2114551
            ],
            [
              -103.8035703,
              19.2114572
            ],
            [
              -103.8035696,
              19.211472
            ],
            [
              -103.8036594,
              19.2114794
            ],
            [
              -103.8036611,
              19.2114625
            ],
            [
              -103.803693,
              19.2114658
            ],
            [
              -103.8036855,
              19.2114836
            ],
            [
              -103.8037881,
              19.2115241
            ],
            [
              -103.8037902,
              19.2115194
            ],
            [
              -103.8038129,
              19.2115292
            ],
            [
              -103.8038075,
              19.2115441
            ],
            [
              -103.8038569,
              19.2115604
            ],
            [
              -103.8038664,
              19.2115269
            ],
            [
              -103.8038801,
              19.2115283
            ],
            [
              -103.8038792,
              19.2115471
            ],
            [
              -103.8040168,
              19.2115592
            ],
            [
              -103.8040283,
              19.2114481
            ],
            [
              -103.8039792,
              19.2114427
            ],
            [
              -103.8039875,
              19.2113788
            ]
          ]
        ]
      }
    },
    {
      "type": "Feature",
      "id": "way/1154289280",
      "properties": {
        "building": "university",
        "building:levels": "3",
        "height": "12",
        "id": "way/1154289280",
        "name": ""
      },
      "geometry": {
        "type": "Polygon",
        "coordinates": [
          [
            [
              -103.8033922,
              19.2126258
            ],
            [
              -103.8035642,
              19.2123895
            ],
            [
              -103.8033772,
              19.2122675
            ],
            [
              -103.8032042,
              19.2125038
            ],
            [
              -103.8033922,
              19.2126258
            ]
          ]
        ]
      }
    },
    {
      "type": "Feature",
      "id": "way/1157965061",
      "properties": {
        "building": "school",
        "name": "",
        "id": "way/1157965061"
      },
      "geometry": {
        "type": "Polygon",
        "coordinates": [
          [
            [
              -103.8031759,
              19.2131516
            ],
            [
              -103.8032615,
              19.2130365
            ],
            [
              -103.803061,
              19.2129035
            ],
            [
              -103.8028061,
              19.2127343
            ],
            [
              -103.8027204,
              19.2128494
            ],
            [
              -103.8031759,
              19.2131516
            ]
          ]
        ]
      }
    },
    {
      "type": "Feature",
      "id": "way/1157965063",
      "properties": {
        "building": "university",
        "id": "way/1157965063",
        "name": ""
      },
      "geometry": {
        "type": "Polygon",
        "coordinates": [
          [
            [
              -103.8043845,
              19.2123233
            ],
            [
              -103.8044026,
              19.2122068
            ],
            [
              -103.8040816,
              19.2121624
            ],
            [
              -103.8040635,
              19.212279
            ],
            [
              -103.8043845,
              19.2123233
            ]
          ]
        ]
      }
    },
    {
      "type": "Feature",
      "id": "way/1157965064",
      "properties": {
        "building": "university",
        "id": "way/1157965064",
        "name": ""
      },
      "geometry": {
        "type": "Polygon",
        "coordinates": [
          [
            [
              -103.8049094,
              19.2123965
            ],
            [
              -103.8049273,
              19.21228
            ],
            [
              -103.8046062,
              19.2122359
            ],
            [
              -103.8045882,
              19.2123524
            ],
            [
              -103.8049094,
              19.2123965
            ]
          ]
        ]
      }
    },
    {
      "type": "Feature",
      "id": "way/1157965065",
      "properties": {
        "building": "university",
        "id": "way/1157965065",
        "name": ""
      },
      "geometry": {
        "type": "Polygon",
        "coordinates": [
          [
            [
              -103.8047354,
              19.2121702
            ],
            [
              -103.8047547,
              19.2120539
            ],
            [
              -103.8044342,
              19.2120063
            ],
            [
              -103.8044148,
              19.2121227
            ],
            [
              -103.8047354,
              19.2121702
            ]
          ]
        ]
      }
    },
    {
      "type": "Feature",
      "id": "way/1157965066",
      "properties": {
        "building": "university",
        "id": "way/1157965066",
        "name": ""
      },
      "geometry": {
        "type": "Polygon",
        "coordinates": [
          [
            [
              -103.8046151,
              19.2118954
            ],
            [
              -103.804636,
              19.2117698
            ],
            [
              -103.8042865,
              19.2117187
            ],
            [
              -103.8041755,
              19.2117017
            ],
            [
              -103.8041548,
              19.2118271
            ],
            [
              -103.8046151,
              19.2118954
            ]
          ]
        ]
      }
    },
    {
      "type": "Feature",
      "id": "way/1157965067",
      "properties": {
        "building": "university",
        "id": "way/1157965067",
        "name": ""
      },
      "geometry": {
        "type": "Polygon",
        "coordinates": [
          [
            [
              -103.805017,
              19.2121926
            ],
            [
              -103.8050353,
              19.2120771
            ],
            [
              -103.8048218,
              19.2120469
            ],
            [
              -103.8048035,
              19.2121624
            ],
            [
              -103.805017,
              19.2121926
            ]
          ]
        ]
      }
    },
    {
      "type": "Feature",
      "id": "way/1157965068",
      "properties": {
        "building": "university",
        "id": "way/1157965068",
        "name": ""
      },
      "geometry": {
        "type": "Polygon",
        "coordinates": [
          [
            [
              -103.8042666,
              19.2120927
            ],
            [
              -103.8042849,
              19.2119772
            ],
            [
              -103.8040715,
              19.211947
            ],
            [
              -103.8040531,
              19.2120625
            ],
            [
              -103.8042666,
              19.2120927
            ]
          ]
        ]
      }
    },
    {
      "type": "Feature",
      "id": "way/1157965069",
      "properties": {
        "building": "university",
        "id": "way/1157965069",
        "name": ""
      },
      "geometry": {
        "type": "Polygon",
        "coordinates": [
          [
            [
              -103.8049147,
              19.2119472
            ],
            [
              -103.8049514,
              19.211732
            ],
            [
              -103.8047877,
              19.2117072
            ],
            [
              -103.804751,
              19.2119224
            ],
            [
              -103.8049147,
              19.2119472
            ]
          ]
        ]
      }
    },
    {
      "type": "Feature",
      "id": "way/1157965070",
      "properties": {
        "building": "university",
        "id": "way/1157965070",
        "name": ""
      },
      "geometry": {
        "type": "Polygon",
        "coordinates": [
          [
            [
              -103.8051052,
              19.2118341
            ],
            [
              -103.8051153,
              19.2117804
            ],
            [
              -103.8050292,
              19.2117661
            ],
            [
              -103.8050192,
              19.2118198
            ],
            [
              -103.8051052,
              19.2118341
            ]
          ]
        ]
      }
    },
    {
      "type": "Feature",
      "id": "way/1157965071",
      "properties": {
        "building": "university",
        "id": "way/1157965071",
        "name": ""
      },
      "geometry": {
        "type": "Polygon",
        "coordinates": [
          [
            [
              -103.8050257,
              19.2116913
            ],
            [
              -103.8050387,
              19.2116209
            ],
            [
              -103.8049399,
              19.2116046
            ],
            [
              -103.8049584,
              19.2115047
            ],
            [
              -103.8048358,
              19.2114845
            ],
            [
              -103.804827,
              19.2115322
            ],
            [
              -103.8048471,
              19.2115355
            ],
            [
              -103.8048372,
              19.2115889
            ],
            [
              -103.804824,
              19.2115867
            ],
            [
              -103.804812,
              19.2116514
            ],
            [
              -103.804883,
              19.2116631
            ],
            [
              -103.8048795,
              19.2116821
            ],
            [
              -103.8049383,
              19.2116918
            ],
            [
              -103.804941,
              19.2116773
            ],
            [
              -103.8050257,
              19.2116913
            ]
          ]
        ]
      }
    },
    {
      "type": "Feature",
      "id": "way/1157965072",
      "properties": {
        "building": "university",
        "id": "way/1157965072",
        "name": ""
      },
      "geometry": {
        "type": "Polygon",
        "coordinates": [
          [
            [
              -103.8046392,
              19.2116473
            ],
            [
              -103.8046661,
              19.2114865
            ],
            [
              -103.8045155,
              19.2114641
            ],
            [
              -103.8044887,
              19.2116249
            ],
            [
              -103.8046392,
              19.2116473
            ]
          ]
        ]
      }
    },
    {
      "type": "Feature",
      "id": "way/1157965073",
      "properties": {
        "building": "university",
        "id": "way/1157965073",
        "name": ""
      },
      "geometry": {
        "type": "Polygon",
        "coordinates": [
          [
            [
              -103.8050139,
              19.2113099
            ],
            [
              -103.8050348,
              19.2111761
            ],
            [
              -103.8047699,
              19.2111391
            ],
            [
              -103.8047489,
              19.211273
            ],
            [
              -103.8050139,
              19.2113099
            ]
          ]
        ]
      }
    },
    {
      "type": "Feature",
      "id": "way/1157965077",
      "properties": {
        "amenity": "fast_food",
        "building": "yes",
        "fast_food": "cafeteria",
        "id": "way/1157965077",
        "name": "Plaza de Servicios Estudiantiles",
        "spaces": []
      },
      "geometry": {
        "type": "Polygon",
        "coordinates": [
          [
            [
              -103.803899,
              19.2120567
            ],
            [
              -103.803908,
              19.212057
            ],
            [
              -103.8039166,
              19.2120545
            ],
            [
              -103.803924,
              19.2120496
            ],
            [
              -103.8039294,
              19.2120428
            ],
            [
              -103.8039323,
              19.2120347
            ],
            [
              -103.8039323,
              19.2120262
            ],
            [
              -103.8039474,
              19.2119117
            ],
            [
              -103.8039448,
              19.2118798
            ],
            [
              -103.8039326,
              19.211853
            ],
            [
              -103.8039121,
              19.2118311
            ],
            [
              -103.8038855,
              19.2118163
            ],
            [
              -103.8038553,
              19.2118099
            ],
            [
              -103.8037513,
              19.2117964
            ],
            [
              -103.8037416,
              19.2117968
            ],
            [
              -103.8037326,
              19.2118002
            ],
            [
              -103.8037254,
              19.2118063
            ],
            [
              -103.8037207,
              19.2118143
            ],
            [
              -103.8037192,
              19.2118233
            ],
            [
              -103.8037036,
              19.2119404
            ],
            [
              -103.8037074,
              19.2119721
            ],
            [
              -103.8037224,
              19.2120008
            ],
            [
              -103.8037468,
              19.212023
            ],
            [
              -103.8037777,
              19.2120361
            ],
            [
              -103.803899,
              19.2120567
            ]
          ]
        ]
      }
    },
    {
      "type": "Feature",
      "id": "way/1157965081",
      "properties": {
        "building": "university",
        "id": "way/1157965081",
        "name": "Edificio C FIME",
        "spaces": [
          {
            "name": "Aula C1",
            "faculty": "FIME"
          },
          {
            "name": "Aula C2",
            "faculty": "FIME"
          },
          {
            "name": "Aula C3",
            "faculty": "FIME"
          },
          {
            "name": "Aula C4",
            "faculty": "FIME"
          }
        ]
      },
      "geometry": {
        "type": "Polygon",
        "coordinates": [
          [
            [
              -103.8035678,
              19.2117939
            ],
            [
              -103.8035867,
              19.211682
            ],
            [
              -103.80327,
              19.2116344
            ],
            [
              -103.8032511,
              19.2117462
            ],
            [
              -103.8035678,
              19.2117939
            ]
          ]
        ]
      }
    },
    {
      "type": "Feature",
      "id": "way/1157965082",
      "properties": {
        "building": "university",
        "id": "way/1157965082",
        "name": "Auditorio",
        "spaces": [
          {
            "name": "Auditorio",
            "faculty": "FIME"
          }
        ]
      },
      "geometry": {
        "type": "Polygon",
        "coordinates": [
          [
            [
              -103.8032115,
              19.2116404
            ],
            [
              -103.8032321,
              19.2115253
            ],
            [
              -103.803076,
              19.2115004
            ],
            [
              -103.8030554,
              19.2116155
            ],
            [
              -103.8032115,
              19.2116404
            ]
          ]
        ]
      }
    },
    {
      "type": "Feature",
      "id": "way/1157965083",
      "properties": {
        "building": "university",
        "id": "way/1157965083",
        "name": "Laboratorio de Electromagnetismo FIME",
        "spaces": [
          {
            "name": "Laboratorio de Electromagnetismo",
            "faculty": "FIME"
          }
        ]
      },
      "geometry": {
        "type": "Polygon",
        "coordinates": [
          [
            [
              -103.803301,
              19.2114849
            ],
            [
              -103.8033194,
              19.2113707
            ],
            [
              -103.8031025,
              19.2113397
            ],
            [
              -103.8030842,
              19.2114538
            ],
            [
              -103.803301,
              19.2114849
            ]
          ]
        ]
      }
    },
    {
      "type": "Feature",
      "id": "way/1157965084",
      "properties": {
        "building": "university",
        "id": "way/1157965084",
        "name": "Laboratorio Telefonía/Robotica FIME",
        "spaces": [
          {
            "name": "Laboratorio de Telefonía",
            "faculty": "FIME"
          },
          {
            "name": "Laboratorio de Inteligancia Artificial",
            "faculty": "FIME"
          },
          {
            "name": "Laboratorio de Robótica",
            "faculty": "FIME"
          }
        ]
      },
      "geometry": {
        "type": "Polygon",
        "coordinates": [
          [
            [
              -103.803439,
              19.2111772
            ],
            [
              -103.8031306,
              19.211128
            ],
            [
              -103.8031099,
              19.2112438
            ],
            [
              -103.8034183,
              19.2112929
            ],
            [
              -103.803439,
              19.2111772
            ]
          ]
        ]
      }
    },
    {
      "type": "Feature",
      "id": "way/1157965085",
      "properties": {
        "building": "university",
        "id": "way/1157965085",
        "name": "Cubiculos PTC FIME",
        "spaces": [
          {
            "name": "Cubiculos PTC",
            "faculty": "FIME"
          }
        ]
      },
      "geometry": {
        "type": "Polygon",
        "coordinates": [
          [
            [
              -103.8034474,
              19.2115697
            ],
            [
              -103.8034748,
              19.2114118
            ],
            [
              -103.803413,
              19.2114023
            ],
            [
              -103.8033856,
              19.2115602
            ],
            [
              -103.8034474,
              19.2115697
            ]
          ]
        ]
      }
    },
    {
      "type": "Feature",
      "id": "way/1157965086",
      "properties": {
        "building": "university",
        "id": "way/1157965086",
        "name": "Taller de Maquinas",
        "spaces": [
          {
            "name": "Taller de Maquinas",
            "faculty": "FIME"
          }
        ]
      },
      "geometry": {
        "type": "Polygon",
        "coordinates": [
          [
            [
              -103.8029564,
              19.2113563
            ],
            [
              -103.8029791,
              19.2112188
            ],
            [
              -103.8028118,
              19.2111943
            ],
            [
              -103.8027892,
              19.2113318
            ],
            [
              -103.8029564,
              19.2113563
            ]
          ]
        ]
      }
    },
    {
      "type": "Feature",
      "id": "way/1157965087",
      "properties": {
        "building": "university",
        "id": "way/1157965087",
        "name": "Centro Computo FIME",
        "spaces": [
          {
            "name": "Centro de Cómputo",
            "faculty": "FIME"
          },
          {
            "name": "Cubículos PTC",
            "faculty": "FIME"
          }
        ]
      },
      "geometry": {
        "type": "Polygon",
        "coordinates": [
          [
            [
              -103.8033914,
              19.2110594
            ],
            [
              -103.8034098,
              19.2109466
            ],
            [
              -103.8031634,
              19.2109108
            ],
            [
              -103.8031451,
              19.2110237
            ],
            [
              -103.8033914,
              19.2110594
            ]
          ]
        ]
      }
    },
    {
      "type": "Feature",
      "id": "way/1157965088",
      "properties": {
        "building": "university",
        "id": "way/1157965088",
        "name": "Edificio de Usos Multiples FIME",
        "spaces": [
          {
            "name": "Laboratorio de Microelectrónica",
            "faculty": "FIME"
          },
          {
            "name": "Laboratorio de Matemáticas",
            "faculty": "FIME"
          },
          {
            "name": "Centro de Cómputo",
            "faculty": "FIME"
          },
          {
            "name": "Laboratorio de Ciencia de Datos",
            "faculty": "FIME"
          }
        ]
      },
      "geometry": {
        "type": "Polygon",
        "coordinates": [
          [
            [
              -103.8035062,
              19.2108588
            ],
            [
              -103.8035523,
              19.2105843
            ],
            [
              -103.8032773,
              19.2105431
            ],
            [
              -103.8032334,
              19.2108046
            ],
            [
              -103.8033329,
              19.2108195
            ],
            [
              -103.8033351,
              19.2108064
            ],
            [
              -103.8034143,
              19.2108183
            ],
            [
              -103.80341,
              19.2108443
            ],
            [
              -103.8035062,
              19.2108588
            ]
          ]
        ]
      }
    },
    {
      "type": "Feature",
      "id": "way/1157965089",
      "properties": {
        "building": "university",
        "id": "way/1157965089",
        "name": ""
      },
      "geometry": {
        "type": "Polygon",
        "coordinates": [
          [
            [
              -103.8037914,
              19.2107812
            ],
            [
              -103.8038203,
              19.2107225
            ],
            [
              -103.8038399,
              19.2106474
            ],
            [
              -103.8038447,
              19.2105722
            ],
            [
              -103.8038401,
              19.2105072
            ],
            [
              -103.8037042,
              19.2104867
            ],
            [
              -103.8036803,
              19.2105521
            ],
            [
              -103.8036644,
              19.2106186
            ],
            [
              -103.8036556,
              19.210696
            ],
            [
              -103.8036588,
              19.2107531
            ],
            [
              -103.803589,
              19.2107413
            ],
            [
              -103.8035718,
              19.2108383
            ],
            [
              -103.8037909,
              19.2108731
            ],
            [
              -103.8038069,
              19.2107836
            ],
            [
              -103.8037914,
              19.2107812
            ]
          ]
        ]
      }
    },
    {
      "type": "Feature",
      "id": "way/1157965090",
      "properties": {
        "building": "university",
        "id": "way/1157965090",
        "name": "Laboratorio de Mecatrónica",
        "spaces": [
          {
            "name": "Laboratorio de Mecatrónica",
            "faculty": "FIME"
          }
        ]
      },
      "geometry": {
        "type": "Polygon",
        "coordinates": [
          [
            [
              -103.8043046,
              19.2107488
            ],
            [
              -103.8043399,
              19.2105491
            ],
            [
              -103.8041049,
              19.2105117
            ],
            [
              -103.8040695,
              19.2107114
            ],
            [
              -103.8043046,
              19.2107488
            ]
          ]
        ]
      }
    },
    {
      "type": "Feature",
      "id": "way/1157965091",
      "properties": {
        "building": "university",
        "id": "way/1157965091",
        "name": ""
      },
      "geometry": {
        "type": "Polygon",
        "coordinates": [
          [
            [
              -103.8038263,
              19.2104887
            ],
            [
              -103.8038389,
              19.2104141
            ],
            [
              -103.803783,
              19.2104056
            ],
            [
              -103.8037703,
              19.2104802
            ],
            [
              -103.8038263,
              19.2104887
            ]
          ]
        ]
      }
    },
    {
      "type": "Feature",
      "id": "way/1157965094",
      "properties": {
        "building": "university",
        "id": "way/1157965094",
        "name": "Laboratorio de Mecánica FIME",
        "spaces": [
          {
            "name": "Laboratorio de Mecánica",
            "faculty": "FIME"
          }
        ]
      },
      "geometry": {
        "type": "Polygon",
        "coordinates": [
          [
            [
              -103.8030482,
              19.2111531
            ],
            [
              -103.803071,
              19.2110149
            ],
            [
              -103.8028453,
              19.2109817
            ],
            [
              -103.8028225,
              19.2111199
            ],
            [
              -103.8030482,
              19.2111531
            ]
          ]
        ]
      }
    },
    {
      "type": "Feature",
      "id": "way/1157965095",
      "properties": {
        "building": "university",
        "id": "way/1157965095",
        "name": "Edificio E FIME",
        "spaces": [
          {
            "name": "Laboratorio de Fisica",
            "faculty": "FIME"
          },
          {
            "name": "Aula A1",
            "faculty": "FIME"
          }
        ]
      },
      "geometry": {
        "type": "Polygon",
        "coordinates": [
          [
            [
              -103.8027465,
              19.2120211
            ],
            [
              -103.8027673,
              19.2118869
            ],
            [
              -103.8023501,
              19.2118294
            ],
            [
              -103.8023294,
              19.2119634
            ],
            [
              -103.8027465,
              19.2120211
            ]
          ]
        ]
      }
    },
    {
      "type": "Feature",
      "id": "way/1157965096",
      "properties": {
        "building": "university",
        "id": "way/1157965096",
        "name": "Posgrado FIME",
        "spaces": [
          {
            "name": "Aula P1",
            "faculty": "FIME"
          },
          {
            "name": "Aula P2",
            "faculty": "FIME"
          },
          {
            "name": "Aula P3",
            "faculty": "FIME"
          },
          {
            "name": "Aula P4",
            "faculty": "FIME"
          },
          {
            "name": "Aula P5",
            "faculty": "FIME"
          }
        ]
      },
      "geometry": {
        "type": "Polygon",
        "coordinates": [
          [
            [
              -103.8022824,
              19.2118263
            ],
            [
              -103.8023036,
              19.2117125
            ],
            [
              -103.8020822,
              19.2116756
            ],
            [
              -103.8020609,
              19.2117893
            ],
            [
              -103.8022824,
              19.2118263
            ]
          ]
        ]
      }
    },
    {
      "type": "Feature",
      "id": "way/1157965097",
      "properties": {
        "building": "university",
        "id": "way/1157965097",
        "name": ""
      },
      "geometry": {
        "type": "Polygon",
        "coordinates": [
          [
            [
              -103.8024698,
              19.2123676
            ],
            [
              -103.8025431,
              19.2122631
            ],
            [
              -103.8022763,
              19.2120962
            ],
            [
              -103.8022029,
              19.2122007
            ],
            [
              -103.8024698,
              19.2123676
            ]
          ]
        ]
      }
    },
    {
      "type": "Feature",
      "id": "way/1157965098",
      "properties": {
        "building": "university",
        "id": "way/1157965098",
        "name": ""
      },
      "geometry": {
        "type": "Polygon",
        "coordinates": [
          [
            [
              -103.8022287,
              19.2126297
            ],
            [
              -103.8022608,
              19.2124182
            ],
            [
              -103.8018711,
              19.2123656
            ],
            [
              -103.8018391,
              19.212577
            ],
            [
              -103.8022287,
              19.2126297
            ]
          ]
        ]
      }
    },
    {
      "type": "Feature",
      "id": "way/1157965099",
      "properties": {
        "building": "university",
        "id": "way/1157965099",
        "name": ""
      },
      "geometry": {
        "type": "Polygon",
        "coordinates": [
          [
            [
              -103.801706,
              19.2125929
            ],
            [
              -103.8017365,
              19.2123799
            ],
            [
              -103.8015699,
              19.2123586
            ],
            [
              -103.8015395,
              19.2125717
            ],
            [
              -103.801706,
              19.2125929
            ]
          ]
        ]
      }
    },
    {
      "type": "Feature",
      "id": "way/1157965100",
      "properties": {
        "building": "university",
        "id": "way/1157965100",
        "name": ""
      },
      "geometry": {
        "type": "Polygon",
        "coordinates": [
          [
            [
              -103.8020453,
              19.2122679
            ],
            [
              -103.8020639,
              19.2121442
            ],
            [
              -103.8017449,
              19.2121016
            ],
            [
              -103.8017264,
              19.2122252
            ],
            [
              -103.8020453,
              19.2122679
            ]
          ]
        ]
      }
    },
    {
      "type": "Feature",
      "id": "way/1157965101",
      "properties": {
        "building": "university",
        "id": "way/1157965101",
        "name": "",
        "spaces": []
      },
      "geometry": {
        "type": "Polygon",
        "coordinates": [
          [
            [
              -103.802107,
              19.212091
            ],
            [
              -103.8021415,
              19.2118603
            ],
            [
              -103.8018969,
              19.2118277
            ],
            [
              -103.8018624,
              19.2120583
            ],
            [
              -103.802107,
              19.212091
            ]
          ]
        ]
      }
    },
    {
      "type": "Feature",
      "id": "way/1157965102",
      "properties": {
        "building": "university",
        "id": "way/1157965102",
        "name": ""
      },
      "geometry": {
        "type": "Polygon",
        "coordinates": [
          [
            [
              -103.8016887,
              19.2123132
            ],
            [
              -103.8016988,
              19.2122439
            ],
            [
              -103.8015948,
              19.2122304
            ],
            [
              -103.8015847,
              19.2122996
            ],
            [
              -103.8016887,
              19.2123132
            ]
          ]
        ]
      }
    },
    {
      "type": "Feature",
      "id": "way/1157965103",
      "properties": {
        "building": "university",
        "id": "way/1157965103",
        "name": ""
      },
      "geometry": {
        "type": "Polygon",
        "coordinates": [
          [
            [
              -103.8018461,
              19.2128207
            ],
            [
              -103.801864,
              19.2126799
            ],
            [
              -103.8015743,
              19.2126471
            ],
            [
              -103.8015564,
              19.2127878
            ],
            [
              -103.8018461,
              19.2128207
            ]
          ]
        ]
      }
    },
    {
      "type": "Feature",
      "id": "way/1157965104",
      "properties": {
        "building": "university",
        "id": "way/1157965104",
        "name": ""
      },
      "geometry": {
        "type": "Polygon",
        "coordinates": [
          [
            [
              -103.8022251,
              19.2129471
            ],
            [
              -103.802258,
              19.21274
            ],
            [
              -103.801999,
              19.2127034
            ],
            [
              -103.8019661,
              19.2129105
            ],
            [
              -103.8022251,
              19.2129471
            ]
          ]
        ]
      }
    },
    {
      "type": "Feature",
      "id": "way/1157965105",
      "properties": {
        "building": "university",
        "id": "way/1157965105",
        "name": "Edificio B FIME",
        "spaces": [
          {
            "name": "Aula B1",
            "faculty": "FIME"
          },
          {
            "name": "Aula B2",
            "faculty": "FIME"
          },
          {
            "name": "Aula B3",
            "faculty": "FIME"
          },
          {
            "name": "Aula B4",
            "faculty": "FIME"
          }
        ]
      },
      "geometry": {
        "type": "Polygon",
        "coordinates": [
          [
            [
              -103.8028485,
              19.2115834
            ],
            [
              -103.8028662,
              19.2114626
            ],
            [
              -103.8023982,
              19.2114013
            ],
            [
              -103.8023804,
              19.211522
            ],
            [
              -103.8028485,
              19.2115834
            ]
          ]
        ]
      }
    },
    {
      "type": "Feature",
      "id": "way/1157965106",
      "properties": {
        "building": "roof",
        "layer": "2",
        "id": "way/1157965106",
        "name": "Explanada FIME",
        "spaces": []
      },
      "geometry": {
        "type": "Polygon",
        "coordinates": [
          [
            [
              -103.8027407,
              19.211895
            ],
            [
              -103.8027839,
              19.2115698
            ],
            [
              -103.8027063,
              19.2115456
            ],
            [
              -103.8026256,
              19.2115479
            ],
            [
              -103.8025807,
              19.211874
            ],
            [
              -103.8026543,
              19.2118961
            ],
            [
              -103.8027407,
              19.211895
            ]
          ]
        ]
      }
    },
    {
      "type": "Feature",
      "id": "way/1157965107",
      "properties": {
        "building": "university",
        "id": "way/1157965107",
        "name": "Laboratorio de Electrónica FIME",
        "spaces": [
          {
            "name": "Laboratorio de Electrónica",
            "faculty": "FIME"
          }
        ]
      },
      "geometry": {
        "type": "Polygon",
        "coordinates": [
          [
            [
              -103.8026965,
              19.2113155
            ],
            [
              -103.8027192,
              19.2111781
            ],
            [
              -103.8025519,
              19.2111535
            ],
            [
              -103.8025293,
              19.211291
            ],
            [
              -103.8026965,
              19.2113155
            ]
          ]
        ]
      }
    },
    {
      "type": "Feature",
      "id": "way/1157965108",
      "properties": {
        "building": "university",
        "id": "way/1157965108",
        "name": "Edificio D FIME",
        "spaces": [
          {
            "name": "Aula D1",
            "faculty": "FIME"
          },
          {
            "name": "Aula D2",
            "faculty": "FIME"
          }
        ]
      },
      "geometry": {
        "type": "Polygon",
        "coordinates": [
          [
            [
              -103.8026824,
              19.2111304
            ],
            [
              -103.8026929,
              19.2110736
            ],
            [
              -103.8026758,
              19.2110706
            ],
            [
              -103.8025216,
              19.2110452
            ],
            [
              -103.8025163,
              19.2110737
            ],
            [
              -103.8025237,
              19.2111041
            ],
            [
              -103.8026824,
              19.2111304
            ]
          ]
        ]
      }
    },
    {
      "type": "Feature",
      "id": "way/1157965109",
      "properties": {
        "building": "university",
        "id": "way/1157965109",
        "name": "Edificio D FIME",
        "spaces": [
          {
            "name": "Aula D3",
            "faculty": "FIME"
          },
          {
            "name": "Aula D4",
            "faculty": "FIME"
          }
        ]
      },
      "geometry": {
        "type": "Polygon",
        "coordinates": [
          [
            [
              -103.8027031,
              19.21101
            ],
            [
              -103.8027119,
              19.2109588
            ],
            [
              -103.8025208,
              19.2109297
            ],
            [
              -103.802512,
              19.210981
            ],
            [
              -103.8027031,
              19.21101
            ]
          ]
        ]
      }
    },
    {
      "type": "Feature",
      "id": "way/1157965139",
      "properties": {
        "building": "university",
        "id": "way/1157965139",
        "name": ""
      },
      "geometry": {
        "type": "Polygon",
        "coordinates": [
          [
            [
              -103.8051449,
              19.2124221
            ],
            [
              -103.805153,
              19.2123639
            ],
            [
              -103.80511,
              19.2123586
            ],
            [
              -103.8051163,
              19.2123133
            ],
            [
              -103.8050145,
              19.2123006
            ],
            [
              -103.8050092,
              19.2123388
            ],
            [
              -103.8049809,
              19.2123353
            ],
            [
              -103.8049723,
              19.2123969
            ],
            [
              -103.8050072,
              19.2124012
            ],
            [
              -103.8050053,
              19.2124155
            ],
            [
              -103.8050337,
              19.2124191
            ],
            [
              -103.8050309,
              19.2124391
            ],
            [
              -103.8050865,
              19.212446
            ],
            [
              -103.8050895,
              19.2124245
            ],
            [
              -103.8051089,
              19.2124269
            ],
            [
              -103.8051101,
              19.2124178
            ],
            [
              -103.8051449,
              19.2124221
            ]
          ]
        ]
      }
    },
    {
      "type": "Feature",
      "id": "way/1157982263",
      "properties": {
        "building": "ruins",
        "name": "",
        "id": "way/1157982263"
      },
      "geometry": {
        "type": "Polygon",
        "coordinates": [
          [
            [
              -103.8032142,
              19.2120423
            ],
            [
              -103.8032079,
              19.2120477
            ],
            [
              -103.8032038,
              19.2120547
            ],
            [
              -103.8032024,
              19.2120626
            ],
            [
              -103.8032039,
              19.2120705
            ],
            [
              -103.8032079,
              19.2120775
            ],
            [
              -103.8032142,
              19.2120829
            ],
            [
              -103.803222,
              19.212086
            ],
            [
              -103.8032303,
              19.2120865
            ],
            [
              -103.8032383,
              19.2120845
            ],
            [
              -103.8032452,
              19.2120802
            ],
            [
              -103.8032503,
              19.2120741
            ],
            [
              -103.803253,
              19.2120667
            ],
            [
              -103.8032531,
              19.2120589
            ],
            [
              -103.8032505,
              19.2120515
            ],
            [
              -103.8032456,
              19.2120453
            ],
            [
              -103.8032386,
              19.2120407
            ],
            [
              -103.8032304,
              19.2120386
            ],
            [
              -103.803222,
              19.2120392
            ],
            [
              -103.8032142,
              19.2120423
            ]
          ]
        ]
      }
    },
    {
      "type": "Feature",
      "id": "way/1249933971",
      "properties": {
        "building": "yes",
        "id": "way/1249933971",
        "name": ""
      },
      "geometry": {
        "type": "Polygon",
        "coordinates": [
          [
            [
              -103.8032552,
              19.2122905
            ],
            [
              -103.8032957,
              19.2122376
            ],
            [
              -103.8032526,
              19.2122081
            ],
            [
              -103.8032121,
              19.2122611
            ],
            [
              -103.8032552,
              19.2122905
            ]
          ]
        ]
      }
    }
  ]
}